NORAD_CAT_ID,OBJECT_NAME,OBJECT_TYPE,EPOCH,MEAN_MOTION,ECCENTRICITY,INCLINATION,RA_OF_ASC_NODE,ARG_OF_PERICENTER,MEAN_ANOMALY,BSTAR,MEAN_MOTION_DOT,MEAN_MOTION_DDOT,TLE_LINE0,TLE_LINE1,TLE_LINE2,SEMIMAJOR_AXIS,PERIOD,APOGEE,PERIGEE,DECAYED
52101.0,STARLINK-3703,PAYLOAD,2022-05-21 06:00:00,15.13855028,0.0001467,53.2177,202.1012,67.6053,192.3092,-0.042387,-0.00721978,0.0,0 STARLINK-3703,1 52101U 22029P   22141.25001157 -.00721978  00000-0 -42387-1 0  9996,2 52101  53.2177 202.1012 0001467  67.6053 192.3092 15.13855028  1307,6902.594,95.121,525.471,523.446,0.0
52101.0,STARLINK-3703,PAYLOAD,2022-05-21 14:00:01,15.13342885,0.00014,53.2176,200.5972,75.4865,201.8009,-0.042782,-0.00718488,0.0,0 STARLINK-3703,1 52101U 22029P   22141.58335648 -.00718488  00000-0 -42782-1 0  9998,2 52101  53.2176 200.5972 0001400  75.4865 201.8009 15.13342885  1304,6904.151,95.154,526.9830000000002,525.049,0.0
52101.0,STARLINK-3703,PAYLOAD,2022-05-21 22:00:00,15.12835524,0.0001353,53.2176,199.0914,67.0379,226.8836,-0.043689,-0.00722979,0.0,0 STARLINK-3703,1 52101U 22029P   22141.91667824 -.00722979  00000-0 -43689-1 0  9996,2 52101  53.2176 199.0914 0001353  67.0379 226.8836 15.12835524  1307,6905.695,95.185,528.494,526.625,0.0
52101.0,STARLINK-3703,PAYLOAD,2022-05-22 06:00:00,15.12325383,0.0001437,53.2177,197.5885,59.743,250.2626,-0.04428,-0.00722388,0.0,0 STARLINK-3703,1 52101U 22029P   22142.25001157 -.00722388  00000-0 -44280-1 0  9997,2 52101  53.2177 197.5885 0001437  59.7430 250.2626 15.12325383 11190,6907.246999999999,95.218,530.105,528.12,0.0
52101.0,STARLINK-3703,PAYLOAD,2022-05-22 14:00:01,15.11813075,0.0001315999999999,53.2175,196.0881,75.048,250.4292,-0.044661,-0.00718493,0.0,0 STARLINK-3703,1 52101U 22029P   22142.58334491 -.00718493  00000-0 -44661-1 0  9998,2 52101  53.2175 196.0881 0001316  75.0480 250.4292 15.11813075  1302,6908.808000000001,95.25,531.582,529.764,0.0
52101.0,STARLINK-3703,PAYLOAD,2022-05-22 22:00:01,15.11304758,0.0001289,53.2176,194.5856,69.3867,271.0128,-0.04552,-0.0072175,0.0,0 STARLINK-3703,1 52101U 22029P   22142.91668981 -.00721750  00000-0 -45520-1 0  9994,2 52101  53.2176 194.5856 0001289  69.3867 271.0128 15.11304758  1302,6910.357,95.282,533.113,531.331,0.0
52101.0,STARLINK-3703,PAYLOAD,2022-05-23 14:00:01,15.10283154,0.0001291,53.2175,191.5896,69.3877,298.8273,-0.046605,-0.00718489,0.0,0 STARLINK-3703,1 52101U 22029P   22143.58334491 -.00718489  00000-0 -46605-1 0  9994,2 52101  53.2175 191.5896 0001291  69.3877 298.8273 15.10283154 11399,6913.473000000001,95.346,536.23,534.445,0.0
52101.0,STARLINK-3703,PAYLOAD,2022-05-23 22:00:01,15.09774393,0.0001308,53.2175,190.0904,62.6631,318.6361,-0.047457,-0.0072119,0.0,0 STARLINK-3703,1 52101U 22029P   22143.91668981 -.00721190  00000-0 -47457-1 0  9994,2 52101  53.2175 190.0904 0001308  62.6631 318.6361 15.09774393  1303,6915.026,95.378,537.795,535.986,0.0
52101.0,STARLINK-3703,PAYLOAD,2022-05-24 14:00:01,15.08835258,0.0001325,53.2174,187.0991,71.8279,333.6218,0.0002298,3.371e-05,0.0,0 STARLINK-3703,1 52101U 22029P   22144.58334491  .00003371  00000-0  22980-3 0  9992,2 52101  53.2174 187.0991 0001325  71.8279 333.6218 15.08835258 11545,6917.895,95.438,540.677,538.8430000000002,0.0
52101.0,STARLINK-3703,PAYLOAD,2022-05-24 22:00:00,15.08864053,0.0001404,53.2159,185.5945,63.181,353.96,-0.0031785,-0.00050552,0.0,0 STARLINK-3703,1 52101U 22029P   22144.91667824 -.00050552  00000-0 -31785-2 0  9995,2 52101  53.2159 185.5945 0001404  63.1810 353.9600 15.08864053 11593,6917.807,95.436,540.643,538.701,0.0
52101.0,STARLINK-3703,PAYLOAD,2022-05-25 04:00:00,15.08890222,0.0001393,53.2149,184.469,65.7575,270.0988,-0.0025613,-0.00040876,0.0,0 STARLINK-3703,1 52101U 22029P   22145.16667824 -.00040876  00000-0 -25613-2 0  9994,2 52101  53.2149 184.4690 0001393  65.7575 270.0988 15.08890222 11630,6917.727,95.434,540.556,538.628,0.0
52101.0,STARLINK-3703,PAYLOAD,2022-05-25 12:00:00,15.0883048,0.0001520999999999,53.2149,182.9743,55.4158,292.0755,-0.0031475,-0.0005002,0.0,0 STARLINK-3703,1 52101U 22029P   22145.50001157 -.00050020  00000-0 -31475-2 0  9998,2 52101  53.2149 182.9743 0001521  55.4158 292.0755 15.08830480 11689,6917.909000000002,95.438,540.827,538.722,0.0
52101.0,STARLINK-3703,PAYLOAD,2022-05-25 14:00:01,15.08811321,0.0001506,53.2147,182.6002,53.1026,27.2871,-0.0016872,-0.00027018,0.0,0 STARLINK-3703,1 52101U 22029P   22145.58334491 -.00027018  00000-0 -16872-2 0  9991,2 52101  53.2147 182.6002 0001506  53.1026  27.2871 15.08811321  1302,6917.968000000003,95.439,540.875,538.7909999999998,0.0
52101.0,STARLINK-3703,PAYLOAD,2022-05-25 22:00:00,15.08760154,0.0001447,53.2149,181.102,62.8258,29.1285,0.0044908,0.00071754,0.0,0 STARLINK-3703,1 52101U 22029P   22145.91667824  .00071754  00000-0  44908-2 0  9992,2 52101  53.2149 181.1020 0001447  62.8258  29.1285 15.08760154  1303,6918.124,95.443,540.991,538.988,0.0
52101.0,STARLINK-3703,PAYLOAD,2022-05-26 06:00:00,15.08833176,0.0001641,53.215,179.6064,62.8467,40.6232,-0.0011276,-0.00018186,0.0,0 STARLINK-3703,1 52101U 22029P   22146.25001157 -.00018186  00000-0 -11276-2 0  9995,2 52101  53.2150 179.6064 0001641  62.8467  40.6232 15.08833176 11792,6917.901,95.438,540.901,538.631,0.0
52101.0,STARLINK-3703,PAYLOAD,2022-05-26 14:00:01,15.08810656,0.000172,53.2148,178.111,56.358,58.6893,0.0022963,0.00036418,0.0,0 STARLINK-3703,1 52101U 22029P   22146.58334491  .00036418  00000-0  22963-2 0  9992,2 52101  53.2148 178.1110 0001720  56.3580  58.6893 15.08810656  1303,6917.97,95.439,541.025,538.645,0.0
52101.0,STARLINK-3703,PAYLOAD,2022-05-26 20:00:01,15.08830579,0.0001626,53.2151,176.9872,62.547,331.1857,-2.3813e-05,-6.67e-06,0.0,0 STARLINK-3703,1 52101U 22029P   22146.83334491 -.00000667  00000-0 -23813-4 0  9996,2 52101  53.2151 176.9872 0001626  62.5470 331.1857 15.08830579 11889,6917.909000000002,95.438,540.899,538.649,0.0
52101.0,STARLINK-3703,PAYLOAD,2022-05-26 22:00:00,15.08812699,0.0001583,53.215,176.6129,63.7155,62.9191,0.0025285,0.00040153,0.0,0 STARLINK-3703,1 52101U 22029P   22146.91667824  .00040153  00000-0  25285-2 0  9999,2 52101  53.2150 176.6129 0001583  63.7155  62.9191 15.08812699  1304,6917.964,95.439,540.924,538.734,0.0
52101.0,STARLINK-3703,PAYLOAD,2022-05-27 02:12:38,15.08842081,0.0001797,53.2154,175.8243,68.9423,291.1761,-7.2563e-05,-1.443e-05,0.0,0 STARLINK-3703,1 52101U 22029P   22147.09211337 -.00001443  00000-0 -72563-4 0  9997,2 52101  53.2154 175.8243 0001797  68.9423 291.1761 15.08842081 11924,6917.874,95.437,540.982,538.496,0.0
52101.0,STARLINK-3703,PAYLOAD,2022-05-27 14:00:01,15.08827616,0.0001754,53.2147,173.6217,56.5883,93.2125,0.0016058,0.00025352,0.0,0 STARLINK-3703,1 52101U 22029P   22147.58334491  .00025352  00000-0  16058-2 0  9996,2 52101  53.2147 173.6217 0001754  56.5883  93.2125 15.08827616 11998,6917.918000000002,95.438,540.997,538.57,0.0
52101.0,STARLINK-3703,PAYLOAD,2022-05-27 22:00:01,15.08821227,0.0001599,53.2149,172.1235,64.0387,97.4258,0.0024943,0.00039612,0.0,0 STARLINK-3703,1 52101U 22029P   22147.91668981  .00039612  00000-0  24943-2 0  9993,2 52101  53.2149 172.1235 0001599  64.0387  97.4258 15.08821227  1303,6917.938,95.439,540.909,538.697,0.0
52101.0,STARLINK-3703,PAYLOAD,2022-05-28 03:38:49,15.08827309,0.0001729,53.2163,171.0676,66.9834,293.134,0.00031566,4.738e-05,0.0,0 STARLINK-3703,1 52101U 22029P   22148.15196143  .00004738  00000-0  31566-3 0  9997,2 52101  53.2163 171.0676 0001729  66.9834 293.1340 15.08827309 12080,6917.919,95.438,540.98,538.5880000000002,0.0
52101.0,STARLINK-3703,PAYLOAD,2022-05-28 14:00:01,15.08845113,0.0001747,53.2151,169.1322,57.4431,127.1545,0.00093973,0.00014702,0.0,0 STARLINK-3703,1 52101U 22029P   22148.58334491  .00014702  00000-0  93973-3 0  9996,2 52101  53.2151 169.1322 0001747  57.4431 127.1545 15.08845113  1300,6917.865,95.437,540.938,538.521,0.0
52101.0,STARLINK-3703,PAYLOAD,2022-05-28 22:00:00,15.0883537,0.0001591,53.2157,167.634,65.2748,130.9436,0.0026769,0.00042567,0.0,0 STARLINK-3703,1 52101U 22029P   22148.91667824  .00042567  00000-0  26769-2 0  9990,2 52101  53.2157 167.6340 0001591  65.2748 130.9436 15.08835370 12198,6917.895,95.438,540.86,538.659,0.0
52101.0,STARLINK-3703,PAYLOAD,2022-05-29 14:00:01,15.0885737,0.0001652,53.2158,164.6428,57.6434,161.798,-0.0016297,-0.00026144,0.0,0 STARLINK-3703,1 52101U 22029P   22149.58334491 -.00026144  00000-0 -16297-2 0  9995,2 52101  53.2158 164.6428 0001652  57.6434 161.7980 15.08857370 12299,6917.8269999999975,95.436,540.835,538.549,0.0
52101.0,STARLINK-3703,PAYLOAD,2022-05-29 22:00:00,15.08816422,0.0001499,53.2158,163.1447,65.2625,165.78900000000004,0.0025936,0.00041204,0.0,0 STARLINK-3703,1 52101U 22029P   22149.91667824  .00041204  00000-0  25936-2 0  9993,2 52101  53.2158 163.1447 0001499  65.2625 165.7890 15.08816422  1307,6917.9519999999975,95.439,540.854,538.78,0.0
52101.0,STARLINK-3703,PAYLOAD,2022-05-30 12:52:41,15.0884031,0.0001717,53.218,160.3627,64.2194,295.8975,1.1285e-05,-1.08e-06,0.0,0 STARLINK-3703,1 52101U 22029P   22150.53659636 -.00000108  00000-0  11285-4 0  9998,2 52101  53.2180 160.3627 0001717  64.2194 295.8975 15.08840310 12443,6917.879,95.438,540.932,538.557,0.0
52101.0,STARLINK-3703,PAYLOAD,2022-05-30 20:00:01,15.088232500000002,0.0001516,53.2154,159.0299,64.3539,108.5716,0.0016264,0.00025679,0.0,0 STARLINK-3703,1 52101U 22029P   22150.83334491  .00025679  00000-0  16264-2 0  9999,2 52101  53.2154 159.0299 0001516  64.3539 108.5716 15.08823250 12486,6917.932,95.439,540.845,538.748,0.0
52101.0,STARLINK-3703,PAYLOAD,2022-05-30 22:00:00,15.08818472,0.0001539,53.2153,158.6555,66.2396,199.5846,0.0025631,0.00040716,0.0,0 STARLINK-3703,1 52101U 22029P   22150.91667824  .00040716  00000-0  25631-2 0  9994,2 52101  53.2153 158.6555 0001539  66.2396 199.5846 15.08818472  1305,6917.946,95.439,540.876,538.747,0.0
